NORAD_CAT_ID,OBJECT_NAME,OBJECT_TYPE,EPOCH,MEAN_MOTION,ECCENTRICITY,INCLINATION,RA_OF_ASC_NODE,ARG_OF_PERICENTER,MEAN_ANOMALY,BSTAR,MEAN_MOTION_DOT,MEAN_MOTION_DDOT,TLE_LINE0,TLE_LINE1,TLE_LINE2,SEMIMAJOR_AXIS,PERIOD,APOGEE,PERIGEE,DECAYED
52139.0,STARLINK-3730,PAYLOAD,2024-06-09 00:29:36,15.08833708,0.0001336,53.2169,66.2196,101.7303,258.3839,-1.8862e-05,-5.88e-06,0.0,0 STARLINK-3730,1 52139U 22029BD  24161.02056497 -.00000588  00000-0 -18862-4 0  9994,2 52139  53.2169  66.2196 0001336 101.7303 258.3839 15.08833708124374,6917.9,95.438,540.689,538.84,0.0
52139.0,STARLINK-3730,PAYLOAD,2024-06-09 21:09:37,15.08843877,0.0001283,53.2175,62.3542,105.3111,254.8023,0.00054581,8.41e-05,0.0,0 STARLINK-3730,1 52139U 22029BD  24161.88168739  .00008410  00000-0  54581-3 0  9998,2 52139  53.2175  62.3542 0001283 105.3111 254.8023 15.08843877124500,6917.869,95.437,540.621,538.846,0.0
52139.0,STARLINK-3730,PAYLOAD,2024-06-09 22:45:00,15.08848195,0.0001348,53.2182,62.0578,106.3249,253.7891,0.00068839,0.00010687,0.0,0 STARLINK-3730,1 52139U 22029BD  24161.94792664  .00010687  00000-0  68839-3 0  9995,2 52139  53.2182  62.0578 0001348 106.3249 253.7891 15.08848195124519,6917.855,95.437,540.653,538.788,0.0
52139.0,STARLINK-3730,PAYLOAD,2024-06-10 09:52:42,15.08856163,0.0001184,53.2177,59.9787,105.8678,254.2444,0.00062604,9.694e-05,0.0,0 STARLINK-3730,1 52139U 22029BD  24162.41160309  .00009694  00000-0  62604-3 0  9993,2 52139  53.2177  59.9787 0001184 105.8678 254.2444 15.08856163124589,6917.831,95.437,540.515,538.877,0.0
52139.0,STARLINK-3730,PAYLOAD,2024-06-10 21:00:24,15.08847573,0.0001545,53.2182,57.8958,108.3968,251.7192,0.00019569,2.828e-05,0.0,0 STARLINK-3730,1 52139U 22029BD  24162.87528326  .00002828  00000-0  19569-3 0  9994,2 52139  53.2182  57.8958 0001545 108.3968 251.7192 15.08847573124658,6917.857,95.437,540.791,538.653,0.0
52139.0,STARLINK-3730,PAYLOAD,2024-06-10 22:35:47,15.08846819,0.0001645,53.2189,57.6003,112.0646,248.0521,5.7146e-05,6.22e-06,0.0,0 STARLINK-3730,1 52139U 22029BD  24162.94152324  .00000622  00000-0  57146-4 0  9997,2 52139  53.2189  57.6003 0001645 112.0646 248.0521 15.08846819124668,6917.86,95.437,540.863,538.587,0.0
52139.0,STARLINK-3730,PAYLOAD,2024-06-11 09:43:29,15.08853877,0.0001197,53.2177,55.5171,88.6747,271.4383,0.00068289,0.00010601,0.0,0 STARLINK-3730,1 52139U 22029BD  24163.40520086  .00010601  00000-0  68289-3 0  9990,2 52139  53.2177  55.5171 0001197  88.6747 271.4383 15.08853877124736,6917.838,95.437,540.531,538.875,0.0
52139.0,STARLINK-3730,PAYLOAD,2024-06-12 01:37:20,15.08853377,0.0001489,53.2188,52.5448,94.3603,265.7559,0.00038466,5.841e-05,0.0,0 STARLINK-3730,1 52139U 22029BD  24164.06759862  .00005841  00000-0  38466-3 0  9993,2 52139  53.2188  52.5448 0001489  94.3603 265.7559 15.08853377124838,6917.84,95.437,540.735,538.674,0.0
52139.0,STARLINK-3730,PAYLOAD,2024-06-12 09:34:16,15.08838153,0.0001663,53.2163,51.0572,90.1574,269.9609,5.4804e-05,5.84e-06,0.0,0 STARLINK-3730,1 52139U 22029BD  24164.39880325  .00000584  00000-0  54804-4 0  9992,2 52139  53.2163  51.0572 0001663  90.1574 269.9609 15.08838153124880,6917.886,95.438,540.901,538.601,0.0
52139.0,STARLINK-3730,PAYLOAD,2024-06-12 22:17:22,15.08831982,0.000156,53.2176,48.6774,90.256,269.8611,-0.0001184,-2.171e-05,0.0,0 STARLINK-3730,1 52139U 22029BD  24164.92872691 -.00002171  00000-0 -11840-3 0  9996,2 52139  53.2176  48.6774 0001560  90.2560 269.8611 15.08831982124966,6917.905,95.438,540.849,538.691,0.0
52139.0,STARLINK-3730,PAYLOAD,2024-06-13 09:25:03,15.08839348,0.0001524,53.2182,46.596,82.4466,277.67,2.2899e-05,7.6e-07,0.0,0 STARLINK-3730,1 52139U 22029BD  24165.39240715  .00000076  00000-0  22899-4 0  9991,2 52139  53.2182  46.5960 0001524  82.4466 277.6700 15.08839348125034,6917.882,95.438,540.802,538.693,0.0
52139.0,STARLINK-3730,PAYLOAD,2024-06-13 22:08:08,15.08846101,0.0001494,53.2179,44.2162,80.7551,279.361,0.00010322,1.355e-05,0.0,0 STARLINK-3730,1 52139U 22029BD  24165.92232448  .00001355  00000-0  10322-3 0  9992,2 52139  53.2179  44.2162 0001494  80.7551 279.3610 15.08846101125114,6917.862,95.437,540.76,538.693,0.0
52139.0,STARLINK-3730,PAYLOAD,2024-06-14 09:15:50,15.08846382,0.0001267,53.2166,42.1353,85.1458,274.9679,0.00024796,3.661e-05,0.0,0 STARLINK-3730,1 52139U 22029BD  24166.38600435  .00003661  00000-0  24796-3 0  9990,2 52139  53.2166  42.1353 0001267  85.1458 274.9679 15.08846382125186,6917.861,95.437,540.602,538.849,0.0
52139.0,STARLINK-3730,PAYLOAD,2024-06-14 21:58:56,15.08843561,0.0001261,53.2163,39.7551,94.6182,265.4954,0.00025484,3.771e-05,0.0,0 STARLINK-3730,1 52139U 22029BD  24166.91592593  .00003771  00000-0  25484-3 0  9991,2 52139  53.2163  39.7551 0001261  94.6182 265.4954 15.08843561125264,6917.87,95.437,540.607,538.862,0.0
52139.0,STARLINK-3730,PAYLOAD,2024-06-15 09:06:37,15.08847557,0.0001256,53.2161,37.6728,96.5171,263.5964,0.00018476,2.654e-05,0.0,0 STARLINK-3730,1 52139U 22029BD  24167.37960221  .00002654  00000-0  18476-3 0  9991,2 52139  53.2161  37.6728 0001256  96.5171 263.5964 15.08847557125335,6917.857,95.437,540.591,538.853,0.0
52139.0,STARLINK-3730,PAYLOAD,2024-06-15 21:49:42,15.08846043,0.0001226,53.2183,35.2969,90.1988,269.9144,0.0001473,2.058e-05,0.0,0 STARLINK-3730,1 52139U 22029BD  24167.90952268  .00002058  00000-0  14730-3 0  9999,2 52139  53.2183  35.2969 0001226  90.1988 269.9144 15.08846043125411,6917.862,95.437,540.575,538.879,0.0
52139.0,STARLINK-3730,PAYLOAD,2024-06-16 21:40:29,15.08841339,0.0001393,53.2172,30.8325,97.4998,262.6152,4.6046e-05,4.45e-06,0.0,0 STARLINK-3730,1 52139U 22029BD  24168.90312338  .00000445  00000-0  46046-4 0  9992,2 52139  53.2172  30.8325 0001393  97.4998 262.6152 15.08841339125560,6917.876,95.437,540.705,538.778,0.0
52139.0,STARLINK-3730,PAYLOAD,2024-06-17 21:31:17,15.08833245,0.0001362,53.2183,26.3755,91.5447,268.5701,6.35e-06,-1.87e-06,0.0,0 STARLINK-3730,1 52139U 22029BD  24169.89673217 -.00000187  00000-0  63500-5 0  9996,2 52139  53.2183  26.3755 0001362  91.5447 268.5701 15.08833245125718,6917.901,95.438,540.708,538.824,0.0
52139.0,STARLINK-3730,PAYLOAD,2024-06-18 07:03:36,15.08839446,0.0001391,53.2184,24.5923,93.6797,266.4355,1.9951e-05,3e-07,0.0,0 STARLINK-3730,1 52139U 22029BD  24170.29416819  .00000030  00000-0  19951-4 0  9991,2 52139  53.2184  24.5923 0001391  93.6797 266.4355 15.08839446125776,6917.882,95.438,540.709,538.785,0.0
52139.0,STARLINK-3730,PAYLOAD,2024-06-18 21:22:04,15.08838529,0.0001234,53.2175,21.9139,91.13,268.9833,5.8479e-05,6.43e-06,0.0,0 STARLINK-3730,1 52139U 22029BD  24170.89032987  .00000643  00000-0  58479-4 0  9995,2 52139  53.2175  21.9139 0001234  91.1300 268.9833 15.08838529125864,6917.885,95.438,540.604,538.896,0.0
52139.0,STARLINK-3730,PAYLOAD,2024-06-19 06:54:23,15.08841226,0.0001269,53.2179,20.1296,87.7097,272.404,6.0889e-05,6.81e-06,0.0,0 STARLINK-3730,1 52139U 22029BD  24171.28776836  .00000681  00000-0  60889-4 0  9997,2 52139  53.2179  20.1296 0001269  87.7097 272.4040 15.08841226125920,6917.877,95.437,540.62,538.864,0.0
52139.0,STARLINK-3730,PAYLOAD,2024-06-19 21:12:51,15.08836756,0.0001401,53.2185,17.4551,85.6516,274.4636,5.5248e-05,5.91e-06,0.0,0 STARLINK-3730,1 52139U 22029BD  24171.88393393  .00000591  00000-0  55248-4 0  9999,2 52139  53.2185  17.4551 0001401  85.6516 274.4636 15.08836756126017,6917.89,95.438,540.725,538.786,0.0
52139.0,STARLINK-3730,PAYLOAD,2024-06-20 13:06:43,15.08837671,0.0001461,53.2179,14.4797,79.0614,281.0542,6.8861e-05,8.08e-06,0.0,0 STARLINK-3730,1 52139U 22029BD  24172.54633437  .00000808  00000-0  68861-4 0  9995,2 52139  53.2179  14.4797 0001461  79.0614 281.0542 15.08837671126119,6917.888,95.438,540.763,538.742,0.0
52139.0,STARLINK-3730,PAYLOAD,2024-06-20 21:03:38,15.08846104,0.0001413,53.2178,12.9934,78.4209,281.6942,5.2154e-05,5.42e-06,0.0,0 STARLINK-3730,1 52139U 22029BD  24172.87752987  .00000542  00000-0  52154-4 0  9996,2 52139  53.2178  12.9934 0001413  78.4209 281.6942 15.08846104126160,6917.862,95.437,540.704,538.749,0.0
52139.0,STARLINK-3730,PAYLOAD,2024-06-21 19:19:02,15.08840963,0.0001704,53.2186,8.8321,66.2749,293.8421,4.4064e-05,4.13e-06,0.0,0 STARLINK-3730,1 52139U 22029BD  24173.80489509  .00000413  00000-0  44064-4 0  9995,2 52139  53.2186   8.8321 0001704  66.2749 293.8421 15.08840963126300,6917.877,95.437,540.921,538.564,0.0
52139.0,STARLINK-3730,PAYLOAD,2024-06-21 22:29:48,15.08846622,0.0001361,53.2176,8.2355,97.9072,262.2075,5.8861e-05,6.49e-06,0.0,0 STARLINK-3730,1 52139U 22029BD  24173.93736867  .00000649  00000-0  58861-4 0  9992,2 52139  53.2176   8.2355 0001361  97.9072 262.2075 15.08846622126324,6917.86,95.437,540.667,538.784,0.0
52139.0,STARLINK-3730,PAYLOAD,2024-06-22 12:48:17,15.08839905,0.0001392,53.2165,5.5569,78.1393,281.9755,-1.2805e-05,-4.92e-06,0.0,0 STARLINK-3730,1 52139U 22029BD  24174.53353648 -.00000492  00000-0 -12805-4 0  9997,2 52139  53.2165   5.5569 0001392  78.1393 281.9755 15.08839905126419,6917.881,95.438,540.709,538.783,0.0
52139.0,STARLINK-3730,PAYLOAD,2024-06-22 22:20:36,15.08842265,0.0001377,53.2163,3.7744,78.4782,281.6365,3.6975e-05,3.01e-06,0.0,0 STARLINK-3730,1 52139U 22029BD  24174.93097258  .00000301  00000-0  36975-4 0  9994,2 52139  53.2163   3.7744 0001377  78.4782 281.6365 15.08842265126473,6917.873,95.437,540.691,538.786,0.0
52139.0,STARLINK-3730,PAYLOAD,2024-06-23 19:00:36,15.08837911,0.0001701,53.2185,359.9076,117.2565,242.86,9.8565e-05,1.281e-05,0.0,0 STARLINK-3730,1 52139U 22029BD  24175.79209093  .00001281  00000-0  98565-4 0  9992,2 52139  53.2185 359.9076 0001701 117.2565 242.8600 15.08837911126601,6917.887,95.438,540.929,538.575,0.0
52139.0,STARLINK-3730,PAYLOAD,2024-06-23 22:11:22,15.08846698,0.0001423,53.2179,359.3122,108.6562,251.4585,4.1919e-05,3.79e-06,0.0,0 STARLINK-3730,1 52139U 22029BD  24175.92456744  .00000379  00000-0  41919-4 0  9992,2 52139  53.2179 359.3122 0001423 108.6562 251.4585 15.08846698126624,6917.86,95.437,540.709,538.741,0.0
